0 PAN SAT
1 25520U 98064B   13282.77982012  .00002869  00000-0  11473-3 0  3441
2 25520 028.4577 119.8781 0004203 242.0393 217.2264 15.21613535828437
0 PAN SAT
1 25520U 98064B   13285.79446025  .00003159  00000-0  12713-3 0  3468
2 25520 028.4580 099.5561 0004194 278.2808 167.7788 15.21628971828892
0 PAN SAT
1 25520U 98064B   13286.84808503  .00003619  00000-0  14692-3 0  3478
2 25520 028.4585 092.4538 0004353 292.5187 176.7317 15.21633406829055
0 PAN SAT
1 25520U 98064B   13288.47557631  .00004333  00000-0  17758-3 0  3483
2 25520 028.4589 081.4811 0004425 308.5143 093.8433 15.21646647829308
0 PAN SAT
1 25520U 98064B   13289.53122792  .00004003  00000-0  16335-3 0  3492
2 25520 028.4592 074.3649 0004486 320.4560 116.2871 15.21653688829461
0 PAN SAT
1 25520U 98064B   13291.76838492  .00003491  00000-0  14126-3 0  3509
2 25520 028.4596 059.2844 0004630 344.0060 132.3925 15.21667803829803
0 PAN SAT
1 25520U 98064B   13293.39818353  .00003994  00000-0  16284-3 0  3510
2 25520 028.4595 048.2990 0004789 002.4244 059.9412 15.21677015830056
0 PAN SAT
1 25520U 98064B   13294.45187384  .00004132  00000-0  16872-3 0  3520
2 25520 028.4596 041.1953 0004730 013.2058 072.8991 15.21683334830212
0 PAN SAT
1 25520U 98064B   13295.50224424  .00004311  00000-0  17637-3 0  3534
2 25520 028.4595 034.1152 0004883 024.3855 067.2563 15.21690625830372
